LEMUR-1                 
1 40044U 14033AL  19042.89070636  .00000091  00000-0  20872-4 0  9991
2 40044  97.7758 275.5412 0059899 146.4908 214.0113 14.74055421249498
LEMUR-2-JOEL            
1 40932U 15052C   19042.98124423  .00000861  00000-0  29177-4 0  9995
2 40932   6.0091 228.0092 0013485 192.5911 167.3880 14.77787381182612
LEMUR-2-CHRIS           
1 40933U 15052D   19040.01956078 -.00000552  00000-0 -16226-3 0  9996
2 40933   6.0064 247.0885 0014135 156.7549 203.3219 14.77937371182192
LEMUR-2-PETER           
1 40935U 15052F   19021.51010417  .00000900  00000-0  35966-4 0  9998
2 40935   6.0106  31.6001 0009695 226.4265  33.2973 14.77067926179310
LEMUR-2-XIAOQING        
1 41871U 16062C   19042.60839973  .00001752  00000-0  82402-4 0  9992
2 41871  51.6388  88.7149 0005811 259.1089 100.9235 15.25141375123112
LEMUR-2-SOKOLSKY        
1 41872U 16062D   19042.50662882  .00000307  00000-0  25687-4 0  9992
2 41872  51.6857  91.7958 0003784  34.4126 325.7098 15.24933238123085
LEMUR-2-ANUBHAVTHAKUR   
1 41873U 16062E   19042.61726763  .00001354  00000-0  71320-4 0  9992
2 41873  51.6384  96.3984 0003917 201.8166 158.2645 15.22745734122988
LEMUR-2-WINGO           
1 41874U 16062F   19042.59695249  .00001911  00000-0  89872-4 0  9994
2 41874  51.6582  91.4757 0012341 188.6068 171.4701 15.24672572123068
LEMUR-2-SATCHMO         
1 41991U 17008AV  19042.64143090  .00000958  00000-0  42593-4 0  9992
2 41991  97.4192 109.9310 0006404 227.6128 132.4568 15.23902537109863
LEMUR-2-MIA-GRACE       
1 41992U 17008AW  19042.60918081  .00001352  00000-0  57494-4 0  9994
2 41992  97.4204 110.4793 0006274 225.8941 134.1781 15.24754056109899
LEMUR-2-SMITA-SHARAD    
1 41993U 17008AX  19043.15975233  .00000982  00000-0  43364-4 0  9997
2 41993  97.4191 110.6049 0006387 224.8725 135.1997 15.24090004109958
LEMUR-2-SPIRE-MINIONS   
1 41994U 17008AY  19042.63008022  .00001386  00000-0  58921-4 0  9997
2 41994  97.4201 110.4266 0006338 224.8094 135.2632 15.24708106109894
LEMUR-2-RDEATON         
1 41995U 17008AZ  19043.20138221  .00001032  00000-0  45357-4 0  9994
2 41995  97.4192 110.7159 0007182 241.5641 118.4873 15.24153732110644
LEMUR-2-NOGUECORREIG    
1 41996U 17008BA  19043.15085192  .00001281  00000-0  54804-4 0  9990
2 41996  97.4216 111.0295 0007061 240.9367 119.1164 15.24628747109878
LEMUR-2-JOBANPUTRA      
1 41997U 17008BB  19042.62939314  .00001400  00000-0  59319-4 0  9995
2 41997  97.4215 110.6577 0007012 242.6158 117.4367 15.24814872109893
LEMUR-2-TACHIKOMA       
1 41998U 17008BC  19042.64606066  .00000966  00000-0  42757-4 0  9997
2 41998  97.4192 110.0742 0007059 244.6365 115.4142 15.24047419109792
LEMUR-2-ANGELA          
1 42752U 17019B   19043.18258408  .00001500  00000-0  63316-4 0  9990
2 42752  51.6423  17.6545 0010028 349.6937  10.3836 15.29926932 93846
LEMUR-2-JENNYBARNA      
1 42753U 17019C   19043.11839852  .00002590  00000-0  97726-4 0  9994
2 42753  51.6414  15.7770 0009707 351.3386   8.7426 15.30816628 93811
LEMUR-2-ROBMOORE        
1 42754U 17019D   19043.21662309  .00001342  00000-0  58122-4 0  9998
2 42754  51.6420  17.8660 0009942 352.5771   7.5060 15.29824180 93824
LEMUR-2-SPIROVISION     
1 42755U 17019E   19043.09175192  .00001135  00000-0  49587-4 0  9999
2 42755  51.6420  16.1488 0009098 354.8748  80.9922 15.30866750 93728
LEMUR-2-SHAINAJOHL      
1 42771U 17036G   19042.94854990  .00001143  00000-0  53450-4 0  9992
2 42771  97.3707 102.8862 0013346 309.4543  50.5511 15.21722277 90954
LEMUR-2-XUENITERENCE    
1 42772U 17036H   19042.59364018  .00001279  00000-0  59226-4 0  9998
2 42772  97.3693 102.5704 0012968 310.5718  49.4389 15.21856296 90901
LEMUR-2-LUCYBRYCE       
1 42773U 17036J   19043.14645627  .00000674  00000-0  32400-4 0  9992
2 42773  97.3719 103.4146 0012664 306.8680  53.1394 15.22112617 91003
LEMUR-2-KUNGFOO         
1 42774U 17036K   19043.16071881  .00001196  00000-0  55531-4 0  9990
2 42774  97.3707 103.2154 0012724 307.9389  52.0697 15.21870767 90989
LEMUR-2-LYNSEY-SYMO     
1 42779U 17036Q   19043.15195431  .00001524  00000-0  67750-4 0  9993
2 42779  97.3721 104.0414 0010798 317.2099  42.8297 15.22985740 91027
LEMUR-2-LISASAURUS      
1 42780U 17036R   19043.17031212  .00001042  00000-0  47899-4 0  9990
2 42780  97.3710 103.8167 0010915 317.6727  42.3666 15.22517878 91020
LEMUR-2-SAM-AMELIA      
1 42781U 17036S   19042.88361637  .00000725  00000-0  33942-4 0  9996
2 42781  97.3722 103.7652 0010885 318.4142  41.6266 15.22827976 90983
LEMUR-2-MCPEAKE         
1 42782U 17036T   19043.16313854  .00001132  00000-0  51455-4 0  9999
2 42782  97.3719 104.0214 0010628 317.6052  42.4362 15.22745834 91028
LEMUR-2-GREENBERG       
1 42837U 17042N   19043.20781375  .00000480  00000-0  52896-4 0  9994
2 42837  97.5802 301.8125 0014409 114.9898 245.2820 14.91735597 86137
LEMUR-2-ANDIS           
1 42838U 17042P   19042.93015467  .00000568  00000-0  61670-4 0  9993
2 42838  97.5803 301.5650 0014486 115.7207 244.5509 14.91759000 86093
LEMUR-2-MONSON          
1 42839U 17042Q   19042.93786966  .00000340  00000-0  39170-4 0  9991
2 42839  97.5804 301.5535 0014191 115.2934 244.9757 14.91629235 86097
LEMUR-2-FURIAUS         
1 42840U 17042R   19042.96130393  .00000137  00000-0  18910-4 0  9996
2 42840  97.5804 301.6707 0014473 115.3260 244.9460 14.91779753 86099
LEMUR-2-PETERG          
1 42841U 17042S   19042.69544456  .00000114  00000-0  16578-4 0  9999
2 42841  97.5806 301.5704 0014063 114.0029 246.2665 14.91985780 86071
LEMUR-2-DEMBITZ         
1 42842U 17042T   19042.95666560  .00000157  00000-0  20756-4 0  9990
2 42842  97.5804 301.8261 0014104 113.8442 246.4257 14.92009124 86117
LEMUR-2-ZACHARY         
1 42845U 17042W   19042.94384052  .00000360  00000-0  40528-4 0  9990
2 42845  97.5752 301.6202 0014294 117.5964 242.6709 14.92243982 86117
LEMUR-2-ARTFISCHER      
1 42881U 17042BJ  19042.86079654  .00003246  00000-0  89348-4 0  9999
2 42881  96.9572 291.9168 0011123 325.8155  34.2374 15.37780550 88422
LEMUR-2-ROCKETJONAH     
1 43041U 17071E   19043.17073210  .00003913  00000-0  99219-4 0  9996
2 43041  51.6391 307.5781 0000372  59.7303 300.3719 15.42162953 68914
LEMUR-2-YONGLIN         
1 43045U 17071J   19043.20868586  .00005669  00000-0  13620-3 0  9993
2 43045  51.6392 306.3507 0004729  52.8977 307.2440 15.42892161 66650
LEMUR-2-KEVIN           
1 43046U 17071K   19042.92582554  .00003889  00000-0  99446-4 0  9993
2 43046  51.6400 308.9782 0004278  51.9502 308.1869 15.41934851 66609
LEMUR-2-BRIANDAVIE      
1 43047U 17071L   19042.94161964  .00004973  00000-0  12486-3 0  9997
2 43047  51.6389 309.7788 0003666  89.4407 270.6999 15.41835757 66580
LEMUR-2-ROMACOSTE       
1 43048U 17071M   19042.95833847  .00005318  00000-0  13091-3 0  9992
2 43048  51.6395 309.1720 0003586  89.6852 270.4545 15.42288698 66598
LEMUR-2-MCCULLAGH       
1 43051U 17071Q   19042.92805236  .00005339  00000-0  13135-3 0  9996
2 43051  51.6394 308.9638 0000777 169.6467 190.4535 15.42292407 66544
LEMUR-2-DUNLOP          
1 43053U 17071S   19043.17351441  .00003496  00000-0  91396-4 0  9998
2 43053  51.6389 309.0702 0001036 173.0728 187.0272 15.41563380 66575
LEMUR-2-LIU-POU-CHUN    
1 43054U 17071T   19042.92149393  .00004312  00000-0  10855-3 0  9990
2 43054  51.6392 308.9182 0000652  65.3662 294.7391 15.42111738 66556
LEMUR-2-MCCAFFERTY      
1 43123U 18004N   19042.88059582  .00001347  00000-0  59026-4 0  9998
2 43123  97.5054 111.0112 0009213 346.3990  13.6998 15.23755088 60209
LEMUR-2-PETERWEBSTER    
1 43124U 18004P   19043.16771345  .00001331  00000-0  58692-4 0  9990
2 43124  97.5052 111.2415 0009292 344.0520  16.0423 15.23550981 60246
LEMUR-2-BROWNCOW        
1 43125U 18004Q   19042.61080975  .00001670  00000-0  72361-4 0  9997
2 43125  97.5053 110.7501 0009202 347.9182  12.1833 15.23789710 60162
LEMUR-2-DAVEWILSON      
1 43126U 18004R   19042.61926541  .00001597  00000-0  69560-4 0  9991
2 43126  97.5054 110.7483 0009240 348.0812  12.0204 15.23669549 60165
LEMUR-2-MARSHALL        
1 43165U 18010C   19042.69600183  .00001516  00000-0  69546-4 0  9995
2 43165  82.9197 137.2625 0030563 329.8007  30.1465 15.19209261 58670
LEMUR-2-TALLHAMN-ATC    
1 43167U 18010E   19042.56376314  .00000899  00000-0  43090-4 0  9998
2 43167  82.9230 138.5564 0024133 340.0211  20.0076 15.17299005 58583
LEMUR-2-JIN-LUEN        
1 43182U 18014C   19043.00572433  .00000368  00000-0  37756-4 0  9992
2 43182  97.7108 312.6435 0015577  73.8362 286.4572 14.96124376 56165
LEMUR-2-URAMCHANSOL     
1 43183U 18014D   19043.19723087  .00000137  00000-0  17316-4 0  9990
2 43183  97.7109 312.8505 0015426  73.2307 287.0605 14.96168611 56190
LEMUR-2-KADI            
1 43184U 18014E   19042.99091230  .00000003  00000-0  53852-5 0  9994
2 43184  97.7112 312.6622 0015436  74.4498 285.8426 14.96197596 56166
LEMUR-2-THENICKMOLO     
1 43185U 18014F   19042.98488109 -.00000004  00000-0  47775-5 0  9998
2 43185  97.7115 312.6699 0015310  74.8180 285.4734 14.96184845 56168
LEMUR-2-VU              
1 43558U 18046E   19042.90784134  .00001482  00000-0  64872-4 0  9992
2 43558  51.6430 304.2328 0007785 344.0752  15.9982 15.28735024 32163
LEMUR-2-ALEXANDER       
1 43559U 18046F   19042.90649155  .00001878  00000-0  78758-4 0  9993
2 43559  51.6429 304.2239 0007786 344.1448  15.9287 15.28768335 31941
LEMUR-2-YUASA           
1 43560U 18046G   19043.17209310  .00001669  00000-0  71500-4 0  9996
2 43560  51.6428 302.9913 0008280 358.9294   1.1666 15.28727199 32209
LEMUR-2-TOMHENDERSON    
1 43561U 18046H   19042.90792492  .00001464  00000-0  64227-4 0  9996
2 43561  51.6428 304.2293 0008328 358.1522   1.9426 15.28759490 31722
LEMUR-2-ZUPANSKI        
1 43695U 18088F   19042.96368384  .00001433  00000-0  64785-4 0  9990
2 43695  85.0310  41.7986 0015993 315.8344  44.1619 15.19883590 14094
